      2.10          N: GNSS NAV DATA                        RINEX VERSION / TYPE
fic2rin                                 11/22/2022 00:16:56 PGM / RUN BY / DATE
                                                            END OF HEADER
27 22 11 21  1 59 44.0  .173172913492D-03 -.898126018001D-11  .000000000000D+00
     .200000000000D+01 -.518125000000D+02  .476734143605D-08  .165693624218D+01
    -.270828604698D-05  .108050382696D-01  .298582017422D-05  .515365884209D+04
     .935840000000D+05 -.195577740669D-06 -.169842603111D+01  .968575477600D-07
     .969826997782D+00  .329156250000D+03  .684446786162D+00 -.848785355317D-08
    -.298226708054D-09  .100000000000D+01  .223700000000D+04  .000000000000D+00
     .240000000000D+01  .000000000000D+00  .139698386192D-08  .200000000000D+01
     .870300000000D+05  .400000000000D+01
5  22 11 21  1 59 44.0 -.105086248368D-03 -.147792889038D-11  .000000000000D+00
     .700000000000D+02  .378437500000D+02  .465876548485D-08  .192876863718D+01
     .180862843990D-05  .588562292978D-02  .780262053013D-05  .515356156158D+04
     .935840000000D+05  .931322574615D-08  .354245737243D+00 -.121071934700D-06
     .963476945848D+00  .232812500000D+03  .114180924469D+01 -.812105256015D-08
     .488591780380D-09  .100000000000D+01  .223700000000D+04  .000000000000D+00
     .240000000000D+01  .000000000000D+00 -.111758708954D-07  .700000000000D+02
     .891900000000D+05  .400000000000D+01
18 22 11 21  3 14 40.0 -.296821817756D-04 -.140971678775D-10  .000000000000D+00
     .212000000000D+03 -.663125000000D+02  .400623830448D-08  .233534179842D+00
    -.358372926712D-05  .295885489322D-02  .121667981148D-04  .515371835327D+04
     .980800000000D+05  .204890966415D-07 -.629659205022D+00  .167638063431D-07
     .973051194619D+00  .149062500000D+03 -.313549807689D+01 -.780103923031D-08
    -.903609067516D-10  .100000000000D+01  .223700000000D+04  .000000000000D+00
     .240000000000D+01  .000000000000D+00 -.838190317154D-08  .212000000000D+03
     .909000000000D+05  .400000000000D+01
2  22 11 21  3 59 44.0 -.636880751699D-03  .181898940355D-11  .000000000000D+00
     .160000000000D+02 -.642187500000D+02  .429660754238D-08 -.485547738978D+00
    -.341795384884D-05  .199977811426D-01  .117551535368D-04  .515370199203D+04
     .100784000000D+06 -.255182385445D-06 -.728344710869D+00 -.111758708954D-07
     .966946763705D+00  .160281250000D+03 -.136152906424D+01 -.829105964163D-08
    -.182150444440D-10  .100000000000D+01  .223700000000D+04  .000000000000D+00
     .240000000000D+01  .000000000000D+00 -.176951289177D-07  .160000000000D+02
     .936000000000D+05  .400000000000D+01
5  22 11 21  3 59 44.0 -.105096492916D-03 -.147792889038D-11  .000000000000D+00
     .720000000000D+02  .403437500000D+02  .463197865479D-08  .297896998832D+01
     .206753611565D-05  .588527345099D-02  .758469104767D-05  .515356241608D+04
     .100784000000D+06  .745058059692D-07  .354187934423D+00 -.242143869400D-07
     .963480765527D+00  .234750000000D+03  .114185782820D+01 -.802283418325D-08
     .460376319379D-09  .100000000000D+01  .223700000000D+04  .000000000000D+00
     .240000000000D+01  .000000000000D+00 -.111758708954D-07  .720000000000D+02
     .936000000000D+05  .400000000000D+01
27 22 11 21  3 59 44.0  .173108186573D-03 -.909494701773D-11  .000000000000D+00
     .600000000000D+01 -.570937500000D+02  .463197865479D-08  .270707836562D+01
    -.301748514175D-05  .108050127747D-01  .290200114250D-05  .515365965652D+04
     .100784000000D+06 -.447034835815D-07 -.169848670856D+01 -.128522515297D-06
     .969826187325D+00  .330000000000D+03  .684495581794D+00 -.824784355579D-08
    -.231438211759D-09  .100000000000D+01  .223700000000D+04  .000000000000D+00
     .240000000000D+01  .000000000000D+00  .139698386192D-08  .600000000000D+01
     .936000000000D+05  .400000000000D+01
1  22 11 21  4  0  0.0  .248745083809D-03 -.557065504836D-11  .000000000000D+00
     .810000000000D+02 -.711562500000D+02  .380408702692D-08  .453872262219D+00
    -.355765223503D-05  .120577919297D-01  .111237168312D-04  .515365921211D+04
     .100800000000D+06 -.875443220139D-07 -.633400985202D+00  .987201929092D-07
     .989193775868D+00  .181531250000D+03  .939925658831D+00 -.780996817367D-08
    -.147506144223D-09  .100000000000D+01  .223700000000D+04  .000000000000D+00
     .240000000000D+01  .000000000000D+00  .465661287308D-08  .810000000000D+02
     .936000000000D+05  .400000000000D+01
3  22 11 21  4  0  0.0 -.373687129468D-03 -.147792889038D-11  .000000000000D+00
     .820000000000D+02  .351875000000D+02  .438053960991D-08 -.670554515241D+00
     .179931521416D-05  .442878762260D-02  .812858343124D-05  .515376892281D+04
     .100800000000D+06 -.279396772385D-07  .398264629183D+00  .633299350739D-07
     .976427709025D+00  .230593750000D+03  .105138029487D+01 -.800354766560D-08
     .453233164695D-09  .100000000000D+01  .223700000000D+04  .000000000000D+00
     .340000000000D+01  .000000000000D+00  .186264514923D-08  .820000000000D+02
     .936000000000D+05  .400000000000D+01
26 22 11 21  4  0  0.0  .236393883824D-03  .113686837722D-11  .000000000000D+00
     .600000000000D+01  .114281250000D+03  .516807241382D-08 -.179943302117D+01
     .561028718948D-05  .749566883314D-02  .622868537903D-05  .515359564590D+04
     .100800000000D+06  .409781932831D-07 -.280538540139D+01 -.167638063431D-06
     .936043170801D+00  .244531250000D+03  .397556790419D+00 -.847892460982D-08
     .495377777330D-09  .100000000000D+01  .223700000000D+04  .000000000000D+00
     .240000000000D+01  .000000000000D+00  .698491930962D-08  .600000000000D+01
     .936000000000D+05  .400000000000D+01
24 22 11 21  4  0  0.0  .501265749335D-04 -.162572177942D-10  .000000000000D+00
     .230000000000D+02  .150625000000D+02  .492556231230D-08  .751743829537D+00
     .808387994766D-06  .134557972196D-01  .118128955364D-04  .515367367363D+04
     .100800000000D+06 -.175088644028D-06  .240901058149D+01  .102445483208D-06
     .934181348609D+00  .140468750000D+03  .861533773060D+00 -.830963184381D-08
    -.436089593453D-09  .100000000000D+01  .223700000000D+04  .000000000000D+00
     .240000000000D+01  .000000000000D+00  .279396772385D-08  .230000000000D+02
     .936000000000D+05  .400000000000D+01
20 22 11 21  4  0  0.0  .468686688691D-03 -.250111042988D-11  .000000000000D+00
     .210000000000D+02  .441875000000D+02  .492520515456D-08  .148740323467D+01
     .238418579102D-05  .474282214418D-02  .865012407303D-05  .515368811798D+04
     .100800000000D+06 -.298023223877D-07  .235131070496D+00  .109896063805D-06
     .945977199405D+00  .206531250000D+03 -.302573800762D+01 -.825891544555D-08
     .386801826134D-09  .100000000000D+01  .223700000000D+04  .000000000000D+00
     .240000000000D+01  .000000000000D+00 -.838190317154D-08  .210000000000D+02
     .936000000000D+05  .400000000000D+01
13 22 11 21  4  0  0.0  .428320840001D-03  .682121026330D-11  .000000000000D+00
     .150000000000D+02 -.459375000000D+02  .451875965305D-08  .220704804633D+01
    -.248663127422D-05  .668850110378D-02  .667758285999D-05  .515366926384D+04
     .100800000000D+06 -.428408384323D-07  .158189224736D+01 -.968575477600D-07
     .968714540746D+00  .255375000000D+03  .951717586080D+00 -.804283501636D-08
    -.405374028313D-09  .100000000000D+01  .223700000000D+04  .000000000000D+00
     .240000000000D+01  .000000000000D+00 -.116415321827D-07  .150000000000D+02
     .936000000000D+05  .400000000000D+01
12 22 11 21  4  0  0.0 -.306718051434D-03 -.443378667114D-11  .000000000000D+00
     .310000000000D+02  .999375000000D+02  .466733727047D-08 -.908511751824D+00
     .540725886822D-05  .863766216207D-02  .504963099957D-05  .515370866776D+04
     .100800000000D+06  .372529029846D-08 -.267312951124D+01  .130385160446D-06
     .967587409179D+00  .291750000000D+03  .131753559781D+01 -.840463580110D-08
     .407159816984D-09  .100000000000D+01  .223700000000D+04  .000000000000D+00
     .340000000000D+01  .000000000000D+00 -.125728547573D-07  .310000000000D+02
     .936000000000D+05  .400000000000D+01
10 22 11 21  4  0  0.0 -.127670355141D-04 -.159161572810D-11  .000000000000D+00
     .730000000000D+02  .355312500000D+02  .430767943214D-08 -.156206950404D+01
     .176578760147D-05  .820545060560D-02  .778771936893D-05  .515367779350D+04
     .100800000000D+06  .156462192535D-06  .395575218141D+00 -.163912773132D-06
     .976204159050D+00  .238156250000D+03 -.249658045980D+01 -.783746931920D-08
     .519307345521D-09  .100000000000D+01  .223700000000D+04  .000000000000D+00
     .240000000000D+01  .000000000000D+00  .232830643654D-08  .730000000000D+02
     .936000000000D+05  .400000000000D+01
6  22 11 21  4  0  0.0  .523142982274D-03  .886757334229D-11  .000000000000D+00
     .380000000000D+02 -.684687500000D+02  .363086552584D-08  .733324258722D+00
    -.363774597645D-05  .265395897441D-02  .112447887659D-04  .515356678200D+04
     .100800000000D+06 -.130385160446D-07 -.641685547339D+00 -.409781932831D-07
     .988470589631D+00  .178843750000D+03 -.916582492391D+00 -.762746057149D-08
    -.828605943335D-10  .100000000000D+01  .223700000000D+04  .000000000000D+00
     .240000000000D+01  .000000000000D+00  .372529029846D-08  .380000000000D+02
     .936000000000D+05  .400000000000D+01
8  22 11 21  4  0  0.0 -.948170199990D-04 -.181898940355D-11  .000000000000D+00
     .790000000000D+02 -.525625000000D+02  .489484674716D-08  .271997242316D+01
    -.264495611191D-05  .781166367233D-02  .243447721004D-05  .515361837769D+04
     .100800000000D+06 -.109896063805D-06 -.172026106652D+01  .000000000000D+00
     .961013377173D+00  .334312500000D+03  .168225973596D+00 -.842927968476D-08
    -.201794119821D-09  .100000000000D+01  .223700000000D+04  .000000000000D+00
     .240000000000D+01  .000000000000D+00  .512227416039D-08  .790000000000D+02
     .936000000000D+05  .400000000000D+01
